{
  "type": "FeatureCollection",
  "features": [
    {
      "type": "Feature",
      "id": 1,
      "geometry": {
        "type": "MultiPolygon",
        "coordinates": [
          [
            [
              [-87.644868977333999, 37.794637787722337],
              [-87.644424057045129, 37.79465898129498],
              [-87.64488669300971, 37.794919888327392],
              [-87.645238777803854, 37.794521166175372],
              [-87.644868977333999, 37.794637787722337]
            ]
          ],
          [
            [
              [-87.619653134358089, 37.804130709918631],
              [-87.619973875135344, 37.804188234514257],
              [-87.619944139102813, 37.803683723964745],
              [-87.619823128847514, 37.803689107592184],
              [-87.619701929047707, 37.80368886059123],
              [-87.619653134358089, 37.804130709918631]
            ]
          ],
          [
            [
              [-87.631202191857724, 37.804194906333905],
              [-87.631196138111022, 37.804200552538191],
              [-87.631190226298131, 37.804206333598003],
              [-87.631184454622442, 37.8042121664704],
              [-87.631178823982225, 37.804218107227008],
              [-87.631173368513501, 37.804224128186938],
              [-87.63116805318198, 37.804230229350097],
              [-87.63072041099781, 37.804753842979117],
              [-87.630822778515991, 37.804806732342826],
              [-87.631111992918349, 37.804956127893512],
              [-87.631114030297411, 37.804957179758844],
              [-87.631165430999673, 37.804894217571338],
              [-87.631518579399085, 37.80466056804336],
              [-87.63156130866389, 37.804424872940899],
              [-87.631267115798252, 37.804220826347382],
              [-87.631208351605622, 37.804189341752469],
              [-87.631202191857724, 37.804194906333905]
            ]
          ],
          [
            [
              [-87.62232811335663, 37.808648662833754],
              [-87.62232861731151, 37.808805201788658],
              [-87.622396478743028, 37.809093935279137],
              [-87.622433527061958, 37.809326794348245],
              [-87.622451581402544, 37.809424715590318],
              [-87.622472902017506, 37.809515081056979],
              [-87.622495716530779, 37.809595034878491],
              [-87.622519987213124, 37.809665394680792],
              [-87.622549275884623, 37.809728076011616],
              [-87.622580182421984, 37.809785249196985],
              [-87.622612631366692, 37.809836240731151],
              [-87.622680670664622, 37.809925863334485],
              [-87.622721541315087, 37.809967102612262],
              [-87.622764072950531, 37.81000691960385],
              [-87.622864668990999, 37.810082268285186],
              [-87.6229138984652, 37.810113707785028],
              [-87.622996477894333, 37.810159812734526],
              [-87.623035000348665, 37.810177715894],
              [-87.623167657261604, 37.810221629218773],
              [-87.623261815076432, 37.810246196539147],
              [-87.623355774363574, 37.810265283473413],
              [-87.623446124219896, 37.810278320838918],
              [-87.623577878325989, 37.810286515144803],
              [-87.623709500379718, 37.810287158851295],
              [-87.623723703642696, 37.810278276127192],
              [-87.625738805386334, 37.809004269792439],
              [-87.625434614271583, 37.808956217353362],
              [-87.6252745308947, 37.808784380621447],
              [-87.625176339644241, 37.80853114360157],
              [-87.625133168408325, 37.808354110671409],
              [-87.623238269334507, 37.808018814512629],
              [-87.623144688238114, 37.808341459768045],
              [-87.622983353508005, 37.808312189153476],
              [-87.622981043939433, 37.808311769703955],
              [-87.622981221805858, 37.808313230325112],
              [-87.623013550376299, 37.808578372325535],
              [-87.62250359026423, 37.808487005707477],
              [-87.622322059609942, 37.808497139185476],
              [-87.62232811335663, 37.808648662833754]
            ]
          ],
          [
            [
              [-87.567327195221182, 37.814185275671775],
              [-87.567825368538422, 37.814238656469875],
              [-87.568346969918238, 37.814396756912039],
              [-87.568635939978847, 37.814531711885593],
              [-87.568846391893715, 37.81457241492032],
              [-87.570792726704056, 37.814376763377652],
              [-87.571202409677582, 37.8129448331294],
              [-87.569659500176513, 37.805182613603797],
              [-87.56849067970245, 37.805378494629444],
              [-87.567795833728496, 37.80549158006778],
              [-87.567521594241924, 37.805532899185287],
              [-87.567200733090445, 37.805576380902409],
              [-87.56700562080735, 37.805596516641522],
              [-87.566684291633607, 37.805623458918966],
              [-87.566319548678791, 37.805644867234292],
              [-87.566080887867372, 37.805654035836881],
              [-87.565874976936257, 37.80565654197818],
              [-87.565701711680887, 37.805653013791122],
              [-87.56552325056991, 37.805642735133041],
              [-87.56532894317732, 37.805626497377034],
              [-87.565231624191028, 37.805612897774509],
              [-87.565151618435195, 37.805598357744749],
              [-87.564941279708037, 37.805561109817987],
              [-87.56471684371914, 37.805515085038586],
              [-87.564379175088661, 37.805439208606714],
              [-87.564446554124885, 37.80557422608701],
              [-87.564522140169515, 37.805974785033591],
              [-87.564597860063117, 37.806380824603323],
              [-87.564652246765377, 37.806833938475684],
              [-87.564638747781601, 37.807131461284904],
              [-87.564564301699065, 37.807272081185701],
              [-87.564508038416193, 37.807657456796015],
              [-87.564485636229634, 37.808086363154452],
              [-87.564482441820459, 37.808453124763595],
              [-87.56441745499788, 37.808908034294042],
              [-87.564402678609767, 37.809222792807972],
              [-87.564541289556431, 37.809511139289341],
              [-87.56486227467542, 37.809541197923792],
              [-87.565304192794599, 37.809630516417208],
              [-87.565582354325713, 37.809748428501088],
              [-87.566050592184396, 37.809924580173508],
              [-87.566474789237972, 37.81013642137642],
              [-87.566877846237972, 37.810479738971438],
              [-87.567128529202847, 37.810816463946018],
              [-87.567243800121801, 37.81099806429652],
              [-87.56727078102135, 37.811180979276145],
              [-87.567314140005166, 37.811608822623811],
              [-87.567299629518388, 37.811933917668505],
              [-87.567133682837635, 37.812364946707504],
              [-87.566888688903461, 37.812682589554448],
              [-87.56482311082398, 37.813875743068706],
              [-87.563878498166758, 37.814467146912456],
              [-87.564098131762151, 37.814385415675595],
              [-87.565223694762011, 37.814181976406665],
              [-87.565796936694255, 37.81419169252564],
              [-87.566457377192833, 37.814155380023507],
              [-87.567327195221182, 37.814185275671775]
            ]
          ],
          [
            [
              [-87.564995523578162, 37.849204742413221],
              [-87.564999688167816, 37.849456792906963],
              [-87.565092854242565, 37.849301181440019],
              [-87.565341021924624, 37.849060188973027],
              [-87.565261454546658, 37.848955385122245],
              [-87.564995523578162, 37.849204742413221]
            ]
          ],
          [
            [
              [-87.565712035120129, 37.850711079832188],
              [-87.566608223193668, 37.851043190856473],
              [-87.56670683395734, 37.851916089590922],
              [-87.566536501701378, 37.852141480029744],
              [-87.566686471844804, 37.851989010790845],
              [-87.566805129412359, 37.851742768988167],
              [-87.566846377355262, 37.8515182107732],
              [-87.566786476793808, 37.851262269638084],
              [-87.566558232846404, 37.850931452688492],
              [-87.566396222583236, 37.850838116229745],
              [-87.566127022645404, 37.850795973417249],
              [-87.565684945524424, 37.850681350775439],
              [-87.565712035120129, 37.850711079832188]
            ]
          ],
          [
            [
              [-87.566163452025123, 37.852635107091096],
              [-87.566257843401914, 37.852523064916745],
              [-87.566283583728065, 37.852476145906685],
              [-87.566163452025123, 37.852635107091096]
            ]
          ],
          [
            [
              [-87.565795956632286, 37.85293447387231],
              [-87.5659585804448, 37.852822252699887],
              [-87.566086138520191, 37.852710234926178],
              [-87.565795956632286, 37.85293447387231]
            ]
          ],
          [
            [
              [-87.565606042899759, 37.853081229179907],
              [-87.565621811926249, 37.853071234461993],
              [-87.565710671477532, 37.853000376973149],
              [-87.565606042899759, 37.853081229179907]
            ]
          ],
          [
            [
              [-87.565376912315187, 37.85325828746452],
              [-87.565254072191649, 37.853518569641189],
              [-87.56532066250702, 37.853437058979452],
              [-87.565376690431322, 37.853320194104377],
              [-87.565436246039695, 37.853212437832532],
              [-87.565376912315187, 37.85325828746452]
            ]
          ],
          [
            [
              [-87.558860831484864, 37.853722793464286],
              [-87.558905263955452, 37.853743992773502],
              [-87.559083580437658, 37.853810601604465],
              [-87.559227708836787, 37.853823488000721],
              [-87.559377885592724, 37.853875378987695],
              [-87.559685286387989, 37.853977130866085],
              [-87.559895610742103, 37.854008235323931],
              [-87.56002641712557, 37.854024582306053],
              [-87.558781594686891, 37.853685143538584],
              [-87.558860831484864, 37.853722793464286]
            ]
          ],
          [
            [
              [-87.56020782830393, 37.854047251883856],
              [-87.560267411760094, 37.854054697286337],
              [-87.560297493644015, 37.854027302428797],
              [-87.560428394350581, 37.853908663136608],
              [-87.56043108390655, 37.853905935916572],
              [-87.56020782830393, 37.854047251883856]
            ]
          ],
          [
            [
              [-87.564777402745705, 37.854528553015541],
              [-87.564737210323244, 37.85507844254483],
              [-87.564529228775413, 37.855805280132344],
              [-87.564283917735963, 37.856189540565097],
              [-87.56437761022346, 37.856232201606197],
              [-87.564480051403521, 37.856172525932358],
              [-87.56454840780674, 37.856132757254009],
              [-87.564683519815375, 37.855990530326331],
              [-87.564700491686025, 37.855765048810447],
              [-87.564704882651114, 37.855521149586558],
              [-87.564740476597635, 37.855347609072112],
              [-87.564807186388947, 37.85524077640541],
              [-87.564871791427564, 37.855122336245387],
              [-87.564891823858375, 37.854808941672559],
              [-87.5649202887748, 37.854275582183341],
              [-87.56504874516547, 37.854072379138977],
              [-87.56506638268776, 37.853916256085348],
              [-87.564777402745705, 37.854528553015541]
            ]
          ],
          [
            [
              [-87.56810354354424, 37.857284400411956],
              [-87.568115960058108, 37.857436664363036],
              [-87.568119706931157, 37.857589110278028],
              [-87.568029196276385, 37.857781341419447],
              [-87.567868069057127, 37.85792123216423],
              [-87.567688837191653, 37.858030479489955],
              [-87.567526019343035, 37.858101622936381],
              [-87.567429990337473, 37.858140859324834],
              [-87.567394852735134, 37.858263654382981],
              [-87.567397853108176, 37.858385812332855],
              [-87.567401413131648, 37.85853070991314],
              [-87.567441424094397, 37.858606272181071],
              [-87.567549049451969, 37.85868838778628],
              [-87.567715982482895, 37.858784689581015],
              [-87.568117407244017, 37.859045645173424],
              [-87.568332021951932, 37.85917896312651],
              [-87.56848927473736, 37.859446431662327],
              [-87.568669229746646, 37.859371510697073],
              [-87.569960546289465, 37.858833779113823],
              [-87.569933328234683, 37.858782739871849],
              [-87.570553164882412, 37.858347337097108],
              [-87.570827112416495, 37.85800524435939],
              [-87.570980541073752, 37.857621732434453],
              [-87.571012622607498, 37.857377499619773],
              [-87.568206832733921, 37.857012474132951],
              [-87.567969691871966, 37.856981607126443],
              [-87.56810354354424, 37.857284400411956]
            ]
          ],
          [
            [
              [-87.552001215126936, 37.863693216494553],
              [-87.552001722675087, 37.86369351152004],
              [-87.553433107231953, 37.864524058833958],
              [-87.553434408890794, 37.864524814118994],
              [-87.553798655975569, 37.864537971679461],
              [-87.55404164487004, 37.864549449881444],
              [-87.554254443184433, 37.864177336087955],
              [-87.552598281278847, 37.863230664050484],
              [-87.552001215126936, 37.863693216494553]
            ]
          ],
          [
            [
              [-87.55638892653775, 37.863826557245574],
              [-87.555326026418854, 37.863955205732516],
              [-87.555224620098002, 37.864589250896408],
              [-87.555383364985119, 37.864589854414731],
              [-87.555506847404089, 37.864586180824965],
              [-87.555759083556083, 37.864578559898547],
              [-87.556132697374323, 37.86455565810931],
              [-87.556506043494622, 37.864521794397156],
              [-87.5568774681185, 37.864476271614855],
              [-87.556936120920028, 37.864468493946475],
              [-87.557253682559491, 37.864418314597437],
              [-87.55756760242879, 37.864360639791784],
              [-87.557712788145011, 37.864330023369675],
              [-87.557745342192575, 37.864323159122264],
              [-87.557720423824932, 37.864315128256948],
              [-87.557706260087841, 37.864310563910983],
              [-87.557214401028745, 37.86404876954586],
              [-87.556794962351233, 37.863825517566355],
              [-87.556453790291172, 37.863623784772066],
              [-87.55638892653775, 37.863826557245574]
            ]
          ],
          [
            [
              [-87.544007593402128, 37.867348640966696],
              [-87.545661124142242, 37.868306780978898],
              [-87.545721929307192, 37.868210004438538],
              [-87.546306657996993, 37.867279190704259],
              [-87.544827565712012, 37.866441614661255],
              [-87.544667699727412, 37.866351039492805],
              [-87.544007593402128, 37.867348640966696]
            ]
          ],
          [
            [
              [-87.55102948502622, 37.871845701289558],
              [-87.551065214618333, 37.871900316070587],
              [-87.551315176236031, 37.87228240354267],
              [-87.551840754457643, 37.872067566051179],
              [-87.551665593757022, 37.871977951559536],
              [-87.551404699642305, 37.871844473098307],
              [-87.551389144414841, 37.871836514673554],
              [-87.551306686258286, 37.871794349828541],
              [-87.551217993793642, 37.871748996763628],
              [-87.55102948502622, 37.871845701289558]
            ]
          ],
          [
            [
              [-87.550327586378984, 37.872205766806964],
              [-87.549671090382816, 37.872516245291671],
              [-87.549407310879417, 37.872633315864583],
              [-87.548757980744284, 37.872897448149132],
              [-87.548767359155846, 37.872908653460932],
              [-87.548775726962731, 37.872918650452633],
              [-87.54888022438648, 37.873043504950331],
              [-87.548949143135076, 37.87312584981953],
              [-87.549059414929459, 37.873257602127943],
              [-87.54922508313247, 37.873186778936109],
              [-87.550997100760242, 37.872420037315067],
              [-87.550777260552323, 37.87202667916479],
              [-87.550754852975871, 37.871986584338337],
              [-87.550327586378984, 37.872205766806964]
            ]
          ],
          [
            [
              [-87.540523156874116, 37.877798656342449],
              [-87.540614840728651, 37.877682985156135],
              [-87.536934194176268, 37.875680669862973],
              [-87.536784858243436, 37.875599447488739],
              [-87.535788722713093, 37.876757292881486],
              [-87.53707030690812, 37.877586569081281],
              [-87.537081946379274, 37.877574122204066],
              [-87.538207450090312, 37.876429979019804],
              [-87.540523156874116, 37.877798656342449]
            ]
          ],
          [
            [
              [-87.525326466807144, 37.878023925798473],
              [-87.526271518740543, 37.878454396425269],
              [-87.527174351652221, 37.877446831243347],
              [-87.526239703108132, 37.877021079245381],
              [-87.525326466807144, 37.878023925798473]
            ]
          ],
          [
            [
              [-87.548739205954845, 37.881391186045427],
              [-87.548905037651252, 37.881356285675984],
              [-87.549735647810721, 37.881181614122966],
              [-87.550737326844683, 37.880970607237451],
              [-87.550864122250417, 37.880987231141901],
              [-87.552972800598894, 37.881264624888502],
              [-87.552999456308314, 37.881235505156234],
              [-87.554260662221139, 37.879856263183804],
              [-87.552446078821944, 37.878792276071245],
              [-87.552297894529303, 37.879836443378856],
              [-87.551577242652186, 37.879681379615022],
              [-87.550981843773442, 37.879574717649703],
              [-87.551058934496197, 37.878988141793563],
              [-87.55179920647744, 37.879058680042995],
              [-87.551989581045703, 37.878524596967573],
              [-87.55091083554349, 37.877892034530269],
              [-87.55076950719311, 37.877809120650127],
              [-87.550348819857348, 37.878259018531992],
              [-87.550267924769386, 37.878345572193155],
              [-87.549659742864151, 37.877987490849463],
              [-87.549278243634348, 37.877763967697817],
              [-87.548084374536913, 37.876427256178495],
              [-87.546807729279308, 37.874997797404731],
              [-87.546307544634175, 37.874717884060601],
              [-87.54618416192821, 37.874648878253112],
              [-87.546154923562355, 37.874632525917988],
              [-87.545681134115199, 37.874973127553872],
              [-87.545325626739825, 37.875180847992851],
              [-87.543176751477318, 37.876272005132527],
              [-87.542302368210699, 37.876716087388971],
              [-87.541880974799099, 37.876911245309174],
              [-87.541759121924073, 37.876976684512741],
              [-87.541208836438898, 37.877339687423593],
              [-87.541066882861074, 37.877445586127919],
              [-87.540926121347638, 37.877600010770394],
              [-87.540716996244441, 37.87786385155021],
              [-87.54078590241663, 37.877899664006478],
              [-87.543126374854495, 37.87911602994474],
              [-87.545252061006252, 37.880220694793273],
              [-87.545324909884229, 37.880139701480992],
              [-87.545719459838466, 37.879701233495702],
              [-87.54586512076348, 37.879782790268706],
              [-87.548739205954845, 37.881391186045427]
            ]
          ],
          [
            [
              [179.99999550852021, 88.999999921613338],
              [-179.99999550852021, 88.999999921613338],
              [-179.99999550852021, -88.999999921613352],
              [179.99999550852021, -88.999999921613352],
              [179.99999550852021, 88.999999921613338]
            ],
            [
              [-87.559082048810083, 37.88682878531089],
              [-87.559024440749241, 37.886882475826383],
              [-87.55824706924507, 37.887623071272728],
              [-87.557402353739022, 37.888367388391124],
              [-87.556846127694882, 37.889082552997984],
              [-87.554155967168029, 37.890127789534638],
              [-87.553880923689292, 37.89028859356597],
              [-87.553689133376125, 37.890454230078099],
              [-87.553501205818677, 37.890636398617843],
              [-87.55291533896343, 37.891273028610343],
              [-87.55261188087394, 37.891620335598503],
              [-87.552407533011419, 37.891841131996827],
              [-87.552294150351202, 37.89195482715219],
              [-87.55227380440833, 37.891971586108234],
              [-87.552182118757173, 37.892049216747125],
              [-87.552090231883383, 37.892118625934003],
              [-87.552042419950695, 37.892148886271613],
              [-87.551991195318266, 37.89217852558145],
              [-87.551876371760343, 37.892233137337911],
              [-87.551764723746942, 37.892276061788557],
              [-87.551663155729329, 37.892304355516274],
              [-87.551602838349581, 37.892316963664584],
              [-87.551557981874183, 37.892326595763848],
              [-87.551435418431765, 37.892344967428294],
              [-87.551291962870778, 37.892360195028637],
              [-87.551209237016266, 37.892364778904359],
              [-87.551137906291117, 37.892368755944439],
              [-87.551065170600893, 37.892369868239598],
              [-87.55099760112185, 37.892368833925616],
              [-87.550935060411774, 37.892364980237559],
              [-87.550743819867563, 37.892341791466571],
              [-87.550686389673132, 37.892330983270782],
              [-87.550554114544184, 37.89230693953111],
              [-87.550130550802876, 37.892208334311526],
              [-87.550003281984999, 37.892178009486493],
              [-87.549347715745171, 37.892017011792348],
              [-87.548655754261588, 37.891856614914268],
              [-87.548279130188831, 37.891761469357625],
              [-87.54802614663852, 37.891689779218133],
              [-87.547881094771284, 37.891641833806382],
              [-87.547667741298028, 37.891562660111568],
              [-87.547429689544373, 37.891466069378801],
              [-87.547279133699391, 37.891403827559003],
              [-87.547135641307477, 37.891347633565367],
              [-87.547088403398263, 37.891329117739275],
              [-87.545771018644217, 37.890818370331893],
              [-87.545541663480819, 37.890722316704867],
              [-87.545410218395176, 37.890659780756636],
              [-87.545287260592346, 37.890594373561058],
              [-87.545130738137246, 37.890501248263746],
              [-87.544813952642187, 37.890300770315257],
              [-87.544343791490476, 37.889994131989127],
              [-87.544127314574979, 37.889855942631122],
              [-87.543581607802821, 37.889509237014451],
              [-87.54333516937767, 37.889351591065981],
              [-87.543029160971088, 37.889164699154122],
              [-87.542856979982261, 37.889071184251989],
              [-87.542532523773005, 37.888909243236846],
              [-87.542173269524568, 37.888743693995195],
              [-87.541964777733654, 37.888654192664816],
              [-87.541758280202657, 37.888569375300484],
              [-87.541562380995387, 37.88849612872783],
              [-87.541191931941881, 37.888369269966468],
              [-87.540900302868053, 37.888279637023516],
              [-87.540694408106617, 37.888219575396981],
              [-87.540465882986538, 37.888157163517967],
              [-87.540209634060176, 37.888095125917417],
              [-87.539937802058574, 37.888036064485043],
              [-87.539582611788489, 37.887965284570292],
              [-87.539375479148603, 37.887929238088098],
              [-87.53888502146134, 37.887855654121061],
              [-87.538643338717293, 37.8878236415879],
              [-87.536782451656791, 37.887613094709849],
              [-87.534949959444091, 37.887806159253671],
              [-87.534372851162857, 37.887880890372294],
              [-87.532573362155389, 37.888134761076806],
              [-87.532288345580355, 37.888175481632878],
              [-87.53085475386284, 37.888373577596973],
              [-87.530326191437865, 37.888446111789236],
              [-87.530259157354735, 37.888451982666496],
              [-87.530220704070672, 37.888455353050375],
              [-87.530113399411675, 37.888459668474347],
              [-87.530037017459705, 37.888455340998107],
              [-87.529988284753856, 37.888445112159062],
              [-87.529942817424072, 37.888429303821553],
              [-87.529907733720634, 37.888411319688899],
              [-87.529877756939612, 37.888391140617685],
              [-87.529836955459416, 37.888349868611208],
              [-87.529817231150702, 37.888322032768997],
              [-87.529796928326974, 37.888270159656862],
              [-87.529769871070613, 37.888154472304443],
              [-87.529730590438177, 37.887962071553602],
              [-87.529662766735939, 37.887521607608043],
              [-87.529588231720169, 37.88708461143915],
              [-87.52949996415866, 37.886520762074305],
              [-87.529426269966024, 37.886048069179694],
              [-87.529406541165756, 37.885916907643484],
              [-87.529626393051757, 37.885603398721216],
              [-87.529879108005787, 37.885421792008287],
              [-87.529996743290567, 37.88533758277682],
              [-87.530093996699847, 37.885276382242601],
              [-87.530176075767358, 37.885232579528314],
              [-87.530258377617074, 37.885195601514937],
              [-87.530349427261015, 37.885164022435688],
              [-87.530401081288161, 37.885149535658798],
              [-87.530514859207102, 37.885124440978387],
              [-87.530642649946159, 37.885106734671531],
              [-87.530708348234455, 37.885100931590557],
              [-87.530858994809293, 37.885092449236517],
              [-87.531201845820632, 37.885085194143066],
              [-87.53139058635341, 37.885076183589696],
              [-87.531438936376944, 37.885070642123587],
              [-87.531487263942594, 37.885061638658357],
              [-87.531545721809692, 37.885044979515058],
              [-87.531624849013184, 37.885019784122349],
              [-87.531731346985069, 37.884979650992591],
              [-87.532030043105237, 37.884862496528797],
              [-87.532173027949028, 37.884803122673759],
              [-87.532152155593394, 37.884793773187326],
              [-87.532903532548175, 37.884447926434554],
              [-87.53344410365186, 37.884753868939185],
              [-87.533246281151563, 37.884972691537264],
              [-87.53331402670041, 37.885003155456225],
              [-87.533375001646945, 37.884927304046499],
              [-87.533701090095079, 37.884521993087859],
              [-87.533858059012886, 37.884599545084114],
              [-87.534344682690488, 37.884839847773968],
              [-87.534411194852439, 37.884759630925949],
              [-87.535050190768558, 37.883989312328637],
              [-87.535420676652976, 37.883543502120702],
              [-87.535881240204205, 37.883239882259922],
              [-87.53628683404655, 37.883175295885778],
              [-87.53653366054391, 37.883134471176376],
              [-87.538468791566032, 37.88282697062651],
              [-87.537602847971485, 37.881483861289546],
              [-87.537817656715475, 37.881268415345168],
              [-87.537936517302313, 37.881368614924853],
              [-87.541679385662817, 37.884526561853626],
              [-87.543165234177053, 37.886845668086082],
              [-87.543170793850351, 37.886504318080959],
              [-87.543246896426268, 37.88184259424213],
              [-87.543247508178979, 37.881805265688023],
              [-87.541568355690345, 37.882112557089314],
              [-87.541401623882038, 37.882143036371794],
              [-87.5390803268822, 37.881002158335711],
              [-87.53844312041015, 37.880688968825595],
              [-87.538364510636271, 37.880624460335099],
              [-87.53820973809934, 37.880497450460147],
              [-87.534576576492881, 37.878434052961232],
              [-87.534530867516281, 37.878408006568918],
              [-87.534263333054994, 37.878452507506033],
              [-87.533114676165809, 37.879609225344701],
              [-87.532765361776001, 37.879782743471999],
              [-87.532385925078103, 37.880217041835877],
              [-87.531993066651523, 37.880668663557522],
              [-87.530008459118491, 37.881722578137008],
              [-87.529606936440999, 37.882183170338415],
              [-87.529532890108783, 37.882268115591629],
              [-87.527127602426518, 37.881020111662529],
              [-87.52660121122959, 37.880739310097454],
              [-87.524890799165689, 37.879994769104407],
              [-87.52471958745906, 37.879909259669724],
              [-87.523873579277307, 37.87948666935047],
              [-87.523591460667376, 37.879799551995177],
              [-87.523629643558522, 37.879818624481224],
              [-87.524445357853978, 37.880226074254878],
              [-87.523283853259599, 37.881526438912786],
              [-87.52308368256314, 37.881750610745925],
              [-87.522297817487967, 37.881305276214022],
              [-87.522301005608924, 37.881291897595418],
              [-87.522304502750316, 37.881278477850834],
              [-87.522308311607119, 37.8812650439233],
              [-87.522312432179334, 37.881251595812735],
              [-87.522316867161877, 37.881238187405273],
              [-87.522321613859859, 37.881224764814803],
              [-87.522326711799082, 37.881211408870456],
              [-87.522332090012682, 37.881198067813258],
              [-87.522337786229912, 37.881184821763284],
              [-87.522343765416437, 37.881171645195707],
              [-87.522350062606577, 37.881158537401397],
              [-87.522356608630062, 37.881145527450627],
              [-87.52236347714873, 37.881132640868401],
              [-87.522370632229951, 37.881119878363869],
              [-87.522378007398444, 37.881107270425268],
              [-87.52238566823118, 37.881094787273483],
              [-87.522393583287155, 37.881082457269734],
              [-87.522401717532048, 37.88107028254116],
              [-87.522410110491748, 37.881058316265054],
              [-87.522418689402713, 37.881046505973281],
              [-87.522480849227122, 37.880955706271372],
              [-87.5229286450232, 37.880467582393315],
              [-87.523555687956133, 37.879783064667549],
              [-87.523837806566064, 37.879470181952797],
              [-87.52391594113115, 37.879380023411223],
              [-87.524000526498313, 37.879427584705724],
              [-87.5240579423197, 37.879364013886018],
              [-87.524029490878007, 37.879347864675445],
              [-87.522284508048728, 37.878599390684258],
              [-87.522063919544181, 37.878474863258973],
              [-87.518355385692132, 37.876381176328856],
              [-87.518796321054396, 37.875895144406009],
              [-87.521286036000319, 37.873122501425449],
              [-87.521989269544079, 37.872364355705251],
              [-87.520889037238604, 37.871815023447709],
              [-87.520554634882501, 37.872168196524726],
              [-87.512986820890575, 37.867722802393416],
              [-87.513081011044747, 37.867637825473857],
              [-87.513390055757, 37.867346395764038],
              [-87.51370637502643, 37.867039839861498],
              [-87.514052752823559, 37.866702927511504],
              [-87.514413588106876, 37.86635435060861],
              [-87.514880034724911, 37.865912941887082],
              [-87.51528199308531, 37.865506168219994],
              [-87.515498629900918, 37.865287405513129],
              [-87.515735767169616, 37.865058306529029],
              [-87.515952502799891, 37.864859131592397],
              [-87.516125912684018, 37.864722870863801],
              [-87.516322385016451, 37.864600695758639],
              [-87.5166008196354, 37.864453379013284],
              [-87.516986729593228, 37.864268603261117],
              [-87.517229917015385, 37.864152163343142],
              [-87.519325894982359, 37.865005583741521],
              [-87.519532966536829, 37.863365216950285],
              [-87.520669664154639, 37.863462828196795],
              [-87.520418873391932, 37.865449758022578],
              [-87.521076063785799, 37.86571732648904],
              [-87.521350980602094, 37.863506703429863],
              [-87.521523527205233, 37.863518672557113],
              [-87.52124131067896, 37.865787064730448],
              [-87.523505976984936, 37.866759618288597],
              [-87.523790292874054, 37.863791022335235],
              [-87.524531750631468, 37.86388085670572],
              [-87.525618350104196, 37.864116086058132],
              [-87.525733926450329, 37.864024508069683],
              [-87.526825664286477, 37.864135503016705],
              [-87.525020164651437, 37.867658122278279],
              [-87.52593563865581, 37.868198538153152],
              [-87.52204337237869, 37.872395077283322],
              [-87.522076384567058, 37.872415109696753],
              [-87.521567521297968, 37.872963706390948],
              [-87.521699574543049, 37.873043836102774],
              [-87.521505614798485, 37.873252939770481],
              [-87.524914713216873, 37.87527738421548],
              [-87.52664653123567, 37.876305719502398],
              [-87.526726453448191, 37.876217946671126],
              [-87.528888365960412, 37.873842273598392],
              [-87.531588618161138, 37.870971918854046],
              [-87.531893730049077, 37.870647567556041],
              [-87.533348560634877, 37.869082879303917],
              [-87.537674050237541, 37.864430261591771],
              [-87.537881749714373, 37.864442351840317],
              [-87.538508553695451, 37.864478709804168],
              [-87.540111558692402, 37.864570387932766],
              [-87.540245080682979, 37.864577976237392],
              [-87.541728227963134, 37.864655007413745],
              [-87.542227672396479, 37.864677605640338],
              [-87.542726930878587, 37.864689961083954],
              [-87.543227635648279, 37.864691904254244],
              [-87.543558483370788, 37.864688930636341],
              [-87.545456557989112, 37.864662733291851],
              [-87.545456549904273, 37.864662397137465],
              [-87.545435541004736, 37.863724281392777],
              [-87.545657548847402, 37.863721038950771],
              [-87.546249473042622, 37.863712583211644],
              [-87.546249465856093, 37.863712295278198],
              [-87.546264837827238, 37.862846389261236],
              [-87.544347652449574, 37.861297514056098],
              [-87.544311783618582, 37.860821557147396],
              [-87.544541424446237, 37.860290620623864],
              [-87.544905875448578, 37.859458298609731],
              [-87.545396179523934, 37.858033378905183],
              [-87.545580998910481, 37.858138046442228],
              [-87.546890857579072, 37.858879942280872],
              [-87.546967756960669, 37.858794365074225],
              [-87.547469441792316, 37.858236617132228],
              [-87.545904570279177, 37.85657256274709],
              [-87.545963948021139, 37.85640119009696],
              [-87.546152386719982, 37.855857886797537],
              [-87.546817298133718, 37.856051291329607],
              [-87.547298977484004, 37.856132584901736],
              [-87.547352427243425, 37.856160127214039],
              [-87.547382326769323, 37.856226993453923],
              [-87.54735803452742, 37.856423497927608],
              [-87.547408384200764, 37.856617008074586],
              [-87.547528313782777, 37.856815267641387],
              [-87.548268061147894, 37.857597381604258],
              [-87.548740321662422, 37.857855973917012],
              [-87.548812797739558, 37.857770704046501],
              [-87.54915464443441, 37.857368231053947],
              [-87.551907887355441, 37.854197418775655],
              [-87.552054048642063, 37.854281411808365],
              [-87.555704489343, 37.856379976657294],
              [-87.555793033585601, 37.85629988982113],
              [-87.558716570135076, 37.853655922825105],
              [-87.558717783759022, 37.853654824840469],
              [-87.558717974201855, 37.85365491492059],
              [-87.56183349959214, 37.850908111137045],
              [-87.563094215024805, 37.849800907890319],
              [-87.5647046041734, 37.84836307376461],
              [-87.564705174603603, 37.848362564456089],
              [-87.564705405470619, 37.848362718383612],
              [-87.564667123764806, 37.848331085211022],
              [-87.564479270767535, 37.848228946750339],
              [-87.556622664581411, 37.843684943040763],
              [-87.564906945199567, 37.834667804460523],
              [-87.565025588394093, 37.834135072617741],
              [-87.565099366130056, 37.833753516738987],
              [-87.565254957032209, 37.833320584877953],
              [-87.565287552402296, 37.832956063937026],
              [-87.565193549996025, 37.832510487020272],
              [-87.564956110893391, 37.83215022758651],
              [-87.564612663400695, 37.831774386421486],
              [-87.564415454449744, 37.831429906360334],
              [-87.564572818626274, 37.830997573171679],
              [-87.564583864311004, 37.83059981492157],
              [-87.564078358046118, 37.830392681900847],
              [-87.563614359337251, 37.830184233561425],
              [-87.562688813421914, 37.829934033616219],
              [-87.562287891717347, 37.829758225560219],
              [-87.561803448250942, 37.829633189892753],
              [-87.56071211196172, 37.829334789261033],
              [-87.560186152854456, 37.829210338945749],
              [-87.559701860304983, 37.829019308342964],
              [-87.55917544395524, 37.828878411994232],
              [-87.558797484087648, 37.828758316016078],
              [-87.558629190109059, 37.828704826516706],
              [-87.557000438497752, 37.830433606781945],
              [-87.553683721924855, 37.833889309693873],
              [-87.550735156514975, 37.837003636054021],
              [-87.550654869586452, 37.837088450352923],
              [-87.546007700467058, 37.834417357922305],
              [-87.542931459302466, 37.832627396936175],
              [-87.542563257833805, 37.832413140584727],
              [-87.540086515458924, 37.83092005273965],
              [-87.540037187170043, 37.83089032350928],
              [-87.54383087232786, 37.826721030995323],
              [-87.544537315552134, 37.825872199621806],
              [-87.544647188494551, 37.82574027817688],
              [-87.544967115398137, 37.825356144320516],
              [-87.544193201509501, 37.825145423202741],
              [-87.541635711370347, 37.824360773166113],
              [-87.541638640776497, 37.824059931555723],
              [-87.541713559372866, 37.822765788603839],
              [-87.541725624645451, 37.822561240631821],
              [-87.543927560696844, 37.822758331527425],
              [-87.543935685060262, 37.822735795668777],
              [-87.544300700204616, 37.821724022971594],
              [-87.54450094007133, 37.821780844840617],
              [-87.548518121580287, 37.82292105300958],
              [-87.548533836707861, 37.822859157750472],
              [-87.550676569290445, 37.814419339316245],
              [-87.550890951334679, 37.814445106000655],
              [-87.551829397057503, 37.814557554465317],
              [-87.550402769978376, 37.820106182916831],
              [-87.557841894915967, 37.82192245369442],
              [-87.557858352051966, 37.821868914535415],
              [-87.55916498846365, 37.817613534160479],
              [-87.559344633554161, 37.817658070383146],
              [-87.559424795616863, 37.81700824009765],
              [-87.559523090173556, 37.81645825335314],
              [-87.56002526638369, 37.814863450012993],
              [-87.558584468380943, 37.814068061894957],
              [-87.557071545542371, 37.815711300932989],
              [-87.556532168299697, 37.815190176433838],
              [-87.556030666724354, 37.814706896934624],
              [-87.555062596360116, 37.814405205532367],
              [-87.554187192607301, 37.814184627741277],
              [-87.555742886931512, 37.812495007127062],
              [-87.554043244769545, 37.811556261753758],
              [-87.552661019618299, 37.810743805086439],
              [-87.552426257495199, 37.810573444446234],
              [-87.552339313152103, 37.810577442224002],
              [-87.550525354082041, 37.810666007885487],
              [-87.550007080960327, 37.81069130747413],
              [-87.547891287056473, 37.810822995355053],
              [-87.545792990537734, 37.810561336139152],
              [-87.543380258516734, 37.810164879358915],
              [-87.543191782986966, 37.810180532025278],
              [-87.542314259210102, 37.810054426300617],
              [-87.542181994860925, 37.810003764223595],
              [-87.542796135291425, 37.809339696323185],
              [-87.544200090689429, 37.807821547993875],
              [-87.542758884851565, 37.806961420210968],
              [-87.542513521709793, 37.806093933661053],
              [-87.543755035653248, 37.804782593328781],
              [-87.543638872707234, 37.804710998854702],
              [-87.543268628469633, 37.804478458819951],
              [-87.543103377084918, 37.804381881704039],
              [-87.542940990427638, 37.804282294339295],
              [-87.542447057158554, 37.804003561147304],
              [-87.54214768730192, 37.803833632822617],
              [-87.54141917606438, 37.803420107442257],
              [-87.541304169250111, 37.803353024403989],
              [-87.541427180951871, 37.803220257115782],
              [-87.542195996002931, 37.802390457399653],
              [-87.540965102841085, 37.801672474795112],
              [-87.541379233373576, 37.801225490998888],
              [-87.541356923713494, 37.801212477587868],
              [-87.540942793181003, 37.801659460043226],
              [-87.539854756403827, 37.801024784395565],
              [-87.542522159011241, 37.798048443596237],
              [-87.54266319091758, 37.79812802297684],
              [-87.542877809218751, 37.797888535708623],
              [-87.544028649014081, 37.798537893298423],
              [-87.542071037651979, 37.800722324449396],
              [-87.543262546875155, 37.801417327462801],
              [-87.542840225503909, 37.801873168281837],
              [-87.543932333445937, 37.802510170409995],
              [-87.543949485877974, 37.802519461484614],
              [-87.544256574059531, 37.802188001497122],
              [-87.544257005250884, 37.802187540135336],
              [-87.544277080800853, 37.802165876004125],
              [-87.543897795918213, 37.801944650520966],
              [-87.546979580586424, 37.798618022263554],
              [-87.549954490888666, 37.801083070184269],
              [-87.545783757653254, 37.805767081107135],
              [-87.547135534407957, 37.806537167507742],
              [-87.547226694544676, 37.806589717045924],
              [-87.547317103689807, 37.806643077074945],
              [-87.54744031571586, 37.806717845779431],
              [-87.547562054504866, 37.806794118353636],
              [-87.547682292209018, 37.806871876339763],
              [-87.547800999183906, 37.806951101989434],
              [-87.547911933036644, 37.807027433941002],
              [-87.548924111579666, 37.807735402662281],
              [-87.548969966981673, 37.807694252274388],
              [-87.551353843319134, 37.809183054172493],
              [-87.551405122748804, 37.809211751697966],
              [-87.552906400726357, 37.808025415013056],
              [-87.553401428143459, 37.805888972550434],
              [-87.561394720186556, 37.804656420185154],
              [-87.561493537562754, 37.804671922839532],
              [-87.562293156743237, 37.804797776563674],
              [-87.564346989350369, 37.80515728870575],
              [-87.56406396434032, 37.804444304196693],
              [-87.563939326687915, 37.804127571321715],
              [-87.563817113588442, 37.803906241699941],
              [-87.563596159469597, 37.803507251492199],
              [-87.563304190832568, 37.803175917309702],
              [-87.563042499912228, 37.802811170822473],
              [-87.562764132666913, 37.802401377446515],
              [-87.562049650419169, 37.801567722870388],
              [-87.57186011750106, 37.80091068207291],
              [-87.571474323425889, 37.798737681763214],
              [-87.571696334861826, 37.798735108664047],
              [-87.574187595808354, 37.798705914451752],
              [-87.574202107193457, 37.799294932726966],
              [-87.574337951329028, 37.800031062682933],
              [-87.574452011318982, 37.800795665350691],
              [-87.574668735271146, 37.801630910768672],
              [-87.574692983495623, 37.801724509646817],
              [-87.573768970106158, 37.801385836704227],
              [-87.572977251608606, 37.800817092810505],
              [-87.572953062672937, 37.800799673595016],
              [-87.572079311820275, 37.800891895805201],
              [-87.572022544582524, 37.800897873738506],
              [-87.572025413801541, 37.800911054007884],
              [-87.572141672867289, 37.801448141773847],
              [-87.572279575941508, 37.801773618702228],
              [-87.573095913667743, 37.802313080818678],
              [-87.573701877632558, 37.802737008575313],
              [-87.57401692219257, 37.8030878707401],
              [-87.574829696302089, 37.804460357673612],
              [-87.575890760264528, 37.806353012452007],
              [-87.576161018417764, 37.806779397571987],
              [-87.576397728088409, 37.807818823328233],
              [-87.57660517693526, 37.80892747785493],
              [-87.581516858583313, 37.809785694897535],
              [-87.582007439339762, 37.810020446716251],
              [-87.582620022091575, 37.810011623575889],
              [-87.582978613383304, 37.810022531850173],
              [-87.583027558989883, 37.810013786068609],
              [-87.583126840795089, 37.809996175270811],
              [-87.583139796298113, 37.809890215155065],
              [-87.583148360836034, 37.809677892768548],
              [-87.583235786676113, 37.809570723549065],
              [-87.58342775305907, 37.809567731384902],
              [-87.583632857303044, 37.809458824617373],
              [-87.583853165533228, 37.809337222244224],
              [-87.583985609545451, 37.809300193377226],
              [-87.584101848848277, 37.809267485262701],
              [-87.584001710050288, 37.809181776676361],
              [-87.583667536764594, 37.808898617692442],
              [-87.583543679748175, 37.808653299468403],
              [-87.583440822648143, 37.808413905234382],
              [-87.583413666577087, 37.808225465255148],
              [-87.583423271364111, 37.807984269754868],
              [-87.583356675658834, 37.807742867643938],
              [-87.583367574019874, 37.807553882294734],
              [-87.58336145289951, 37.807306679506993],
              [-87.583436072356918, 37.8070349898411],
              [-87.583494777260725, 37.806957797690679],
              [-87.583737842512008, 37.806918322569977],
              [-87.584145086559531, 37.806865272897262],
              [-87.584497781309736, 37.80670736286325],
              [-87.58479866392932, 37.806554974310473],
              [-87.585211403869778, 37.806234722328355],
              [-87.58551103513615, 37.806029544424895],
              [-87.585773084484316, 37.805848902086105],
              [-87.586016455162778, 37.805751031463025],
              [-87.586244160120998, 37.805647249168963],
              [-87.586337829252301, 37.805515981459557],
              [-87.586339629476129, 37.805309967594376],
              [-87.586270286722723, 37.80488724913468],
              [-87.58620336313237, 37.80463286809664],
              [-87.586089645400548, 37.804234311933627],
              [-87.585968044952111, 37.804077597203317],
              [-87.58586725038397, 37.803989908722954],
              [-87.585861798508517, 37.803985136229464],
              [-87.585734413807955, 37.803939801074584],
              [-87.585667647422781, 37.803970324037302],
              [-87.585581543902819, 37.804059535705846],
              [-87.585524808106101, 37.804213551227413],
              [-87.58544817642246, 37.804403659457599],
              [-87.585338862232177, 37.804463751062215],
              [-87.585299485480007, 37.804479323314055],
              [-87.585198283975046, 37.804519472595629],
              [-87.585050054766654, 37.804474413867482],
              [-87.584882607001049, 37.804353377487345],
              [-87.584806620307802, 37.804224758460663],
              [-87.584899037187597, 37.804111402789914],
              [-87.585104412722814, 37.804014126070768],
              [-87.585251335780782, 37.803935604911473],
              [-87.585299253714666, 37.80377557136309],
              [-87.585331390943949, 37.8035339752116],
              [-87.585311870552815, 37.803374946545397],
              [-87.585256455279577, 37.803234992092719],
              [-87.585134324825134, 37.803054286845885],
              [-87.585018303812916, 37.802914653316002],
              [-87.584926930775481, 37.802864571199976],
              [-87.584830581969669, 37.802811824531076],
              [-87.584654212136698, 37.802890756428468],
              [-87.584381907621236, 37.80300701484132],
              [-87.584148166882628, 37.803145900090442],
              [-87.584095429487249, 37.803157976253964],
              [-87.583926125802279, 37.803196734379959],
              [-87.583806419900782, 37.803116217164671],
              [-87.583740831206939, 37.802915342512712],
              [-87.583646910547358, 37.802757472297991],
              [-87.583559919491861, 37.802529469439968],
              [-87.583421429817776, 37.802319439792072],
              [-87.583374585370677, 37.802243941232447],
              [-87.583149279812574, 37.802094323710037],
              [-87.582946567782187, 37.80201505097255],
              [-87.582840832479974, 37.801940518125605],
              [-87.582727439938296, 37.801835806329294],
              [-87.582673763803442, 37.801765896882507],
              [-87.582670705938213, 37.801642343398058],
              [-87.58260785081778, 37.801549251918132],
              [-87.582477733442133, 37.801398148807401],
              [-87.582167926958547, 37.801120666040944],
              [-87.582077896004122, 37.801109997782923],
              [-87.582020386757947, 37.801103102808163],
              [-87.581671318506537, 37.801124987998101],
              [-87.581487331858241, 37.801175274295652],
              [-87.581456551983351, 37.801175753408664],
              [-87.581234677091331, 37.801179208700503],
              [-87.581039891795015, 37.80124139682804],
              [-87.580963337366498, 37.801265866344885],
              [-87.580873575906693, 37.801273419285465],
              [-87.580784126162257, 37.801227391834047],
              [-87.580700142666345, 37.801122989918099],
              [-87.580725938688047, 37.80097493949053],
              [-87.580842516655721, 37.800855680393283],
              [-87.580883906532449, 37.800784290793942],
              [-87.58084440671108, 37.80065510054942],
              [-87.580570437617411, 37.800424523839553],
              [-87.580261643535138, 37.800187563120119],
              [-87.580014384948129, 37.799779440987599],
              [-87.58057935159998, 37.799390178494882],
              [-87.58083416501853, 37.799191864663293],
              [-87.580862302049852, 37.799138524094339],
              [-87.580852857162967, 37.799038444144422],
              [-87.580670460532744, 37.798870934817302],
              [-87.580583390425502, 37.798710215255589],
              [-87.580612850675251, 37.79836227948519],
              [-87.580777494798824, 37.797806974936201],
              [-87.580869873051071, 37.797623502264571],
              [-87.581130733029795, 37.7973955644797],
              [-87.581756588389922, 37.797155736245251],
              [-87.582044882917444, 37.797127919910174],
              [-87.58245771448604, 37.797021212328367],
              [-87.582790795420337, 37.796981008572359],
              [-87.583020395823809, 37.796959586388354],
              [-87.583064238999569, 37.796972753873526],
              [-87.583170425256043, 37.797004573038556],
              [-87.583223595639396, 37.797056645960623],
              [-87.583324962434361, 37.797231618347688],
              [-87.583466381514611, 37.797565203098493],
              [-87.583633421445057, 37.797739054879017],
              [-87.583777506725056, 37.797825397136243],
              [-87.584040063621345, 37.797874205687187],
              [-87.584114211463216, 37.797843326710343],
              [-87.584201076754567, 37.797807104125106],
              [-87.584355631000875, 37.797687247914602],
              [-87.584644215684207, 37.797671107785831],
              [-87.585013115143852, 37.797606292406051],
              [-87.585293832381922, 37.797549055844719],
              [-87.585509543034476, 37.797522315763281],
              [-87.585624458220551, 37.797532112865724],
              [-87.585679487218229, 37.797536832538839],
              [-87.585807272567394, 37.79759389733043],
              [-87.585906054909302, 37.797669257257198],
              [-87.585981908651902, 37.797795135690698],
              [-87.586106582236908, 37.79800537979456],
              [-87.586242815343013, 37.79812685247326],
              [-87.586392189903407, 37.798218591080222],
              [-87.586512245249537, 37.79824009027012],
              [-87.586602670564361, 37.798208138190027],
              [-87.586687208320797, 37.798178297827988],
              [-87.58718460908689, 37.797923325820435],
              [-87.587370722047453, 37.797890841231926],
              [-87.587504300631878, 37.797902845142268],
              [-87.587540685095831, 37.797906028013081],
              [-87.587697917220012, 37.797962630421516],
              [-87.587812102075773, 37.798030918673426],
              [-87.587872977309331, 37.798112399698063],
              [-87.58816349337053, 37.798449853267059],
              [-87.588300370568675, 37.798594687584441],
              [-87.588510333800031, 37.798685429021788],
              [-87.588778780949653, 37.798692918342333],
              [-87.588796917036916, 37.798683738228235],
              [-87.588946317648464, 37.798607914403192],
              [-87.589143160985088, 37.798446174253243],
              [-87.589331510750711, 37.798296301309158],
              [-87.58980367784045, 37.797901906039165],
              [-87.589974622747448, 37.797990656551235],
              [-87.596149151530355, 37.801198649327766],
              [-87.594376920103542, 37.803084803076722],
              [-87.603211218508903, 37.807921459191924],
              [-87.603228531739347, 37.807825588504599],
              [-87.603231540197243, 37.807807746521618],
              [-87.603252665877775, 37.807683042018965],
              [-87.603294142891073, 37.807610969156286],
              [-87.603396551731777, 37.807483686558804],
              [-87.603599599732078, 37.807434459935138],
              [-87.60400735581932, 37.80740470704955],
              [-87.604032301136471, 37.807415616418645],
              [-87.604212181585581, 37.807494202722317],
              [-87.604362131067745, 37.80760721607659],
              [-87.604599234200478, 37.807811531529133],
              [-87.604824387044971, 37.80809298494075],
              [-87.605113972451534, 37.808596625763222],
              [-87.605223314489592, 37.808883945591454],
              [-87.605244124861471, 37.809160397065469],
              [-87.605147235269882, 37.809370027559268],
              [-87.605170263582181, 37.809669722525356],
              [-87.605202936207377, 37.809865622166605],
              [-87.605545879745193, 37.810149351598326],
              [-87.605829168859941, 37.810398913876334],
              [-87.605952715059274, 37.810701254706757],
              [-87.606138979835109, 37.811159776250001],
              [-87.606028567005225, 37.8113813069779],
              [-87.605773371802684, 37.811696404829007],
              [-87.605587055822866, 37.811792070356724],
              [-87.605416335494695, 37.811956070042136],
              [-87.60541952002238, 37.812083131313145],
              [-87.605553655562304, 37.812254056932197],
              [-87.606014255046119, 37.812604560199546],
              [-87.606562608255118, 37.812999701611041],
              [-87.60680229224765, 37.813238359231697],
              [-87.609196981606175, 37.815045748653908],
              [-87.609188895870318, 37.814868649731743],
              [-87.609170173183159, 37.814461109755655],
              [-87.608896510415008, 37.814113099156536],
              [-87.608814134903454, 37.81400248665058],
              [-87.608842516276539, 37.813889402181488],
              [-87.608905946318757, 37.813728439237728],
              [-87.609082795852103, 37.813598579700688],
              [-87.609318605410806, 37.813477407823562],
              [-87.60951236213613, 37.813332900757125],
              [-87.60977190698128, 37.813121368211078],
              [-87.610007945610377, 37.812937042218977],
              [-87.610159276701467, 37.812826823245622],
              [-87.610299913349095, 37.812775879196593],
              [-87.610453710315625, 37.812763779766904],
              [-87.610505181984763, 37.812778404257713],
              [-87.610584433155765, 37.812800860832986],
              [-87.610764559743274, 37.812871498615543],
              [-87.610920066203803, 37.812927423871301],
              [-87.611075391204622, 37.812978494139415],
              [-87.611220887737929, 37.812981049709975],
              [-87.611286360549087, 37.812971452658488],
              [-87.611331298771191, 37.812964874600389],
              [-87.611435012864007, 37.812889746024169],
              [-87.611506492709481, 37.812771890763777],
              [-87.611503177926082, 37.812640069389239],
              [-87.611500104789485, 37.81251786334289],
              [-87.611422739182274, 37.812401642612684],
              [-87.611258599911878, 37.812277224066953],
              [-87.611146420994146, 37.812220612757329],
              [-87.61080937759111, 37.812037802548964],
              [-87.61061548791514, 37.811899425840323],
              [-87.610388845663905, 37.811697650345316],
              [-87.610211002593829, 37.811510251356317],
              [-87.61012268472669, 37.811442970564087],
              [-87.610100319371043, 37.811438273780283],
              [-87.610037487606817, 37.811425080485975],
              [-87.609900902361133, 37.81143204972507],
              [-87.609772510649137, 37.811487704256869],
              [-87.609603712715682, 37.811592669214193],
              [-87.609347062242378, 37.811714124514431],
              [-87.609139605310659, 37.811795700446481],
              [-87.609069747822588, 37.811806905109641],
              [-87.608968918220171, 37.811823118796454],
              [-87.608764084369071, 37.811801635625187],
              [-87.608459789049732, 37.811679380641479],
              [-87.608091238136439, 37.811479890482389],
              [-87.607938914406958, 37.811412946059626],
              [-87.6076302793265, 37.811187691626635],
              [-87.607385880975343, 37.810966376067519],
              [-87.607201380490707, 37.810788649207041],
              [-87.60714911381254, 37.810638411679314],
              [-87.607193545384817, 37.81047635508552],
              [-87.607258283374065, 37.810367458174632],
              [-87.607354489347728, 37.810268453036755],
              [-87.607463508890618, 37.810199398966354],
              [-87.60762981849075, 37.810132952309438],
              [-87.607872587297976, 37.810011671836278],
              [-87.6080044671682, 37.809887334428815],
              [-87.608083279961335, 37.809783792863243],
              [-87.608105070395183, 37.809685866419649],
              [-87.608131668612415, 37.809504180514651],
              [-87.608103846889762, 37.809361780632464],
              [-87.608043931955265, 37.809182135084988],
              [-87.607924231443661, 37.808895607048257],
              [-87.60787757384611, 37.808691030577549],
              [-87.607909579921369, 37.808519502669256],
              [-87.607938761693376, 37.808440745702725],
              [-87.607992118926305, 37.808361605399121],
              [-87.608156124347715, 37.808271098704232],
              [-87.608364374491828, 37.808223898172912],
              [-87.608561548408488, 37.808215973335251],
              [-87.608604256113722, 37.808219675283524],
              [-87.608708989794394, 37.808228744914054],
              [-87.609058291607781, 37.80835023981458],
              [-87.609206457934121, 37.808391855418272],
              [-87.609440592134831, 37.808407392065163],
              [-87.609607780287291, 37.808400275626909],
              [-87.609618679546642, 37.808399766042541],
              [-87.609840183434457, 37.808327586000672],
              [-87.609990902772822, 37.808193376968212],
              [-87.610103645832552, 37.808065202533243],
              [-87.61016580206369, 37.807921381121389],
              [-87.61018634833087, 37.807774081025102],
              [-87.610114613363862, 37.807604240866475],
              [-87.610066270526843, 37.807405175476077],
              [-87.61012811414426, 37.807178925827806],
              [-87.610247202004842, 37.807025978972383],
              [-87.610369814854607, 37.806945742021263],
              [-87.610490429851168, 37.806855966755009],
              [-87.610704548689043, 37.806832619773871],
              [-87.610795743860052, 37.806843345404161],
              [-87.61085386575725, 37.806850216421573],
              [-87.610972731733966, 37.80696578157189],
              [-87.611063055539148, 37.807115415486038],
              [-87.611097029823185, 37.807227513147119],
              [-87.611115291674594, 37.807471685624932],
              [-87.611118345946565, 37.807593171125049],
              [-87.611079759711842, 37.807779905098862],
              [-87.611040912965706, 37.807956303485916],
              [-87.611020291240038, 37.808098121970303],
              [-87.611013030157608, 37.808293930677344],
              [-87.611028159583626, 37.80841113729722],
              [-87.611086055105375, 37.808512565092897],
              [-87.611181848752324, 37.808672403847837],
              [-87.611254087674212, 37.808862097477061],
              [-87.611366333067267, 37.809124116155381],
              [-87.611408773972869, 37.809367906211307],
              [-87.611418571897673, 37.809485148741516],
              [-87.611421143774336, 37.809587451561427],
              [-87.611354957700826, 37.809705944970702],
              [-87.611169167235445, 37.809889525313764],
              [-87.610951063470992, 37.810029611936741],
              [-87.610855408164596, 37.810147896691163],
              [-87.610816498536366, 37.810324295808826],
              [-87.610853092307778, 37.810400619305568],
              [-87.610940075278435, 37.810487158964122],
              [-87.611064309587277, 37.810538721327731],
              [-87.611250250969618, 37.810566030139924],
              [-87.61140434617684, 37.810568400560506],
              [-87.611431997219597, 37.810556660590414],
              [-87.61161846411639, 37.810477096729969],
              [-87.61185545585802, 37.810331178567345],
              [-87.612090102996746, 37.810161973093791],
              [-87.612550814769989, 37.809827109552934],
              [-87.612848686236731, 37.809626649885601],
              [-87.613030927458425, 37.809503663130926],
              [-87.613151644862924, 37.809488678874622],
              [-87.613551997933911, 37.809439051177677],
              [-87.61377389797876, 37.809435534526841],
              [-87.613820252844064, 37.809434799969075],
              [-87.614128684006985, 37.809377009057599],
              [-87.614283672139564, 37.809386046608701],
              [-87.614463244466549, 37.809396425525719],
              [-87.614820206214375, 37.809544618757876],
              [-87.615000550194168, 37.809696285748295],
              [-87.615065504677432, 37.809868297786466],
              [-87.615057821386813, 37.810046992070241],
              [-87.614969952677299, 37.810202189547219],
              [-87.614797024290155, 37.810344981697078],
              [-87.614705137416365, 37.81036230923791],
              [-87.614657472807394, 37.810371289182044],
              [-87.614492999363705, 37.810368414152222],
              [-87.614285581059548, 37.810313989412514],
              [-87.614032446592262, 37.81024715890571],
              [-87.613991132174036, 37.810236222985928],
              [-87.613838855156956, 37.810243493963966],
              [-87.613718387484099, 37.810274163360297],
              [-87.613574668716737, 37.810339636169466],
              [-87.613485166870049, 37.810427622994304],
              [-87.613434019492715, 37.810529430552315],
              [-87.613411245403626, 37.810655413396248],
              [-87.613433236161782, 37.810770441732309],
              [-87.613466801712363, 37.810866050264067],
              [-87.61355473869385, 37.810990325698718],
              [-87.613574912160189, 37.811105383320466],
              [-87.613588119191505, 37.81114841180586],
              [-87.613712319364353, 37.811270766317072],
              [-87.61380648167075, 37.811365413978088],
              [-87.614048816591691, 37.811568953978423],
              [-87.614487555573078, 37.81207775965273],
              [-87.614731664666706, 37.812354037359881],
              [-87.61490650197382, 37.812558693812264],
              [-87.61499317861896, 37.812632827034626],
              [-87.615110374627562, 37.812679110671489],
              [-87.615183272912873, 37.812687525423435],
              [-87.615286713917826, 37.812671456702518],
              [-87.615301668172364, 37.812663476276946],
              [-87.615370460258504, 37.812626843664063],
              [-87.615484084565523, 37.812533759643081],
              [-87.615585708278687, 37.812445626293361],
              [-87.615752595495536, 37.81233241098581],
              [-87.615908313958471, 37.812261935916318],
              [-87.616094288578466, 37.812225368395694],
              [-87.616195610457694, 37.812245546322615],
              [-87.616228267811508, 37.812252050636964],
              [-87.616351159139015, 37.812317383302776],
              [-87.616419286471839, 37.812341023071028],
              [-87.616539693957577, 37.81251701171729],
              [-87.616607762001621, 37.812607983730445],
              [-87.61667750809859, 37.812693349109715],
              [-87.616764482086083, 37.812779163621208],
              [-87.616882770446068, 37.812868664135095],
              [-87.617007601236253, 37.812948395032883],
              [-87.617121871431962, 37.812876171178907],
              [-87.617261557662005, 37.812787769267153],
              [-87.618033332661966, 37.81229274641224],
              [-87.618333027708744, 37.812095032850316],
              [-87.618579991648318, 37.811933794891488],
              [-87.618677051021521, 37.811869104869295],
              [-87.618639858972116, 37.811769419727824],
              [-87.618505304817305, 37.811580671786956],
              [-87.618318879243006, 37.81139751011267],
              [-87.618205890044877, 37.81131138953414],
              [-87.617862835115972, 37.81116236027156],
              [-87.617705023578452, 37.811082432986751],
              [-87.617527008930168, 37.81095617621628],
              [-87.61745221340297, 37.810874930078647],
              [-87.617416955426393, 37.810782090826208],
              [-87.617454290307904, 37.81068329063951],
              [-87.617515942584177, 37.810517493277402],
              [-87.617632915810589, 37.810283486814491],
              [-87.617796790077975, 37.81005359238938],
              [-87.617935586077579, 37.809860502293162],
              [-87.618004284738944, 37.80977221671246],
              [-87.618129651823352, 37.809592326601759],
              [-87.618191362490109, 37.809431384807702],
              [-87.618342673818262, 37.809253823165726],
              [-87.618481388969485, 37.809055203668805],
              [-87.618687427461381, 37.808990177555295],
              [-87.618947732281242, 37.808944824181182],
              [-87.619070468200192, 37.808958552339561],
              [-87.619189072767156, 37.808971865307917],
              [-87.619477653857231, 37.809086070151402],
              [-87.619664394740198, 37.809217044078302],
              [-87.619801954657945, 37.809251264627271],
              [-87.619925222379564, 37.809264405790785],
              [-87.620001220750908, 37.809242084406073],
              [-87.620066147386382, 37.809223016369707],
              [-87.620150338393117, 37.809196284063162],
              [-87.620238559242239, 37.809127502232471],
              [-87.620262213680292, 37.809034400315163],
              [-87.620282791388505, 37.808821978235613],
              [-87.620290163862052, 37.808564317622526],
              [-87.620271327088844, 37.80836820090078],
              [-87.62029276089153, 37.808187219354139],
              [-87.620354726679821, 37.808036613151025],
              [-87.620444062338208, 37.807942419000163],
              [-87.62055220782031, 37.807837008109615],
              [-87.620686844620153, 37.807753202788426],
              [-87.62076000521354, 37.80756586689126],
              [-87.620793633646187, 37.80739022202232],
              [-87.620783609345935, 37.807197427310456],
              [-87.620784319913326, 37.807021633229311],
              [-87.620859254679374, 37.806834990314314],
              [-87.620933074636156, 37.80667380687543],
              [-87.620993131504477, 37.806514909885472],
              [-87.621203198940407, 37.806542492728077],
              [-87.621906903201392, 37.806635117999889],
              [-87.621904284612327, 37.806614683031675],
              [-87.62174589096648, 37.805378919773673],
              [-87.621713660312409, 37.805152225286577],
              [-87.621675158519324, 37.804926148305412],
              [-87.621630405350189, 37.804700797429632],
              [-87.621579422364562, 37.804476279840515],
              [-87.621522233816947, 37.80425270626931],
              [-87.621126250151477, 37.804727160867358],
              [-87.621197016734641, 37.804865018695835],
              [-87.620800759981336, 37.804988571047808],
              [-87.620693087911377, 37.804830918193275],
              [-87.620395707823093, 37.804704366828453],
              [-87.620056085356893, 37.804690844420314],
              [-87.619487511969169, 37.804825773838807],
              [-87.619247368039211, 37.804917006583352],
              [-87.619092969201432, 37.804946499279275],
              [-87.618919238618744, 37.804957844094872],
              [-87.618765728214797, 37.804949612290052],
              [-87.618709749697857, 37.804944721328468],
              [-87.618512695257124, 37.804874345672047],
              [-87.618128072585094, 37.804652803939618],
              [-87.617904990357331, 37.804498583502145],
              [-87.617804075414938, 37.804413202970693],
              [-87.618496506717406, 37.803508945724218],
              [-87.618874798961642, 37.803237311644672],
              [-87.618629537329497, 37.802694392540594],
              [-87.619770290840833, 37.80237080627974],
              [-87.619339631307099, 37.80213063149683],
              [-87.620322438533563, 37.80141587238365],
              [-87.620564944134415, 37.801309817619845],
              [-87.620683254952283, 37.801483962959566],
              [-87.620797449689505, 37.801659829845079],
              [-87.620907489718562, 37.801837356512138],
              [-87.621307010051268, 37.8016114312166],
              [-87.621352603145212, 37.801669171421871],
              [-87.621747429780555, 37.801446445365187],
              [-87.622068646664914, 37.801853236657053],
              [-87.622138383778733, 37.80181347560125],
              [-87.623011804051387, 37.801316016265773],
              [-87.623068990802381, 37.801367727701958],
              [-87.623155953111763, 37.801402473587494],
              [-87.623610799784529, 37.801570796984933],
              [-87.622303606417375, 37.802355929173345],
              [-87.62240905875025, 37.802561043465403],
              [-87.621412720200652, 37.802906964975229],
              [-87.621492014490784, 37.803089568530638],
              [-87.621567104665388, 37.803273286694051],
              [-87.621637963774987, 37.803458061255547],
              [-87.623123523031694, 37.804279828608138],
              [-87.623080464983502, 37.804315787534783],
              [-87.622996458131396, 37.804398575403503],
              [-87.622913470867132, 37.804503615736479],
              [-87.622812484957834, 37.804658081741657],
              [-87.62270114326995, 37.804889959713236],
              [-87.622594632721643, 37.80519903599459],
              [-87.622515533365942, 37.805499796197566],
              [-87.622456523034927, 37.805810613788566],
              [-87.622280130744059, 37.806681831952531],
              [-87.622284145315064, 37.806713143726832],
              [-87.625650721081172, 37.807285620154907],
              [-87.625658741240017, 37.807279786105809],
              [-87.625749174639665, 37.807226834636744],
              [-87.626140026229905, 37.807075693459957],
              [-87.626225410199339, 37.80712492600064],
              [-87.627513896150688, 37.807868242033209],
              [-87.627626965298887, 37.807801990584387],
              [-87.628762479835459, 37.80713617253749],
              [-87.629504231341969, 37.806760296251475],
              [-87.629998647904671, 37.806533332752721],
              [-87.629513632211413, 37.805742456935867],
              [-87.629409708811153, 37.805572995372259],
              [-87.629340336413335, 37.805554982503814],
              [-87.628523056354354, 37.805342767600955],
              [-87.629540324751758, 37.804225686836851],
              [-87.629687961970404, 37.804303644132737],
              [-87.629728873045053, 37.804325232401666],
              [-87.629975131807157, 37.804455182773488],
              [-87.630026852309641, 37.804395605032525],
              [-87.630345951864868, 37.804560456538447],
              [-87.630764662907012, 37.804070659919446],
              [-87.630449365022073, 37.803905622070026],
              [-87.630128790433147, 37.803604661606613],
              [-87.630755393191592, 37.803299781240241],
              [-87.630985627805657, 37.803209324414048],
              [-87.632542323751395, 37.803590373151216],
              [-87.633828404014437, 37.805112468136031],
              [-87.63392576791648, 37.805073962979989],
              [-87.633994937295057, 37.805046608841344],
              [-87.634046586830635, 37.805025700023656],
              [-87.63714030921065, 37.803773266733252],
              [-87.63699453240298, 37.803539304197322],
              [-87.637035284475843, 37.802940934347085],
              [-87.635319713387261, 37.803372430389842],
              [-87.635306078757878, 37.803341685020065],
              [-87.634617361989115, 37.801825493069998],
              [-87.634548948992034, 37.801881155551897],
              [-87.634201946865758, 37.80198307142404],
              [-87.634146232453531, 37.802026366427285],
              [-87.633945404190285, 37.802182379981481],
              [-87.634002952064023, 37.802468670025853],
              [-87.633535749962846, 37.802543489092514],
              [-87.632757166631379, 37.802426663541638],
              [-87.633065776559022, 37.803618999743399],
              [-87.625475378022543, 37.794729425603109],
              [-87.625428894604511, 37.794672799403514],
              [-87.625384966634698, 37.794614913290893],
              [-87.625343648737058, 37.794555839243081],
              [-87.625304992289941, 37.794495650715291],
              [-87.625269045362259, 37.794434422548655],
              [-87.62523585265356, 37.794372230877244],
              [-87.625205455438646, 37.794309153033403],
              [-87.625177891516174, 37.794245267451579],
              [-87.625153195161502, 37.794180653570798],
              [-87.625131397084331, 37.794115391735929],
              [-87.625112524390318, 37.794049563097744],
              [-87.625096600547451, 37.793983249512038],
              [-87.625083645356881, 37.79391653343783],
              [-87.625073674928203, 37.79384949783487],
              [-87.625066701659563, 37.793782226060451],
              [-87.625062734222141, 37.793714801765759],
              [-87.625061777549405, 37.793647308791869],
              [-87.625063832830989, 37.7935798310655],
              [-87.625068897511127, 37.793512452494618],
              [-87.625076965291981, 37.793445256864125],
              [-87.625088026141313, 37.793378327731702],
              [-87.625102066305146, 37.793311748323809],
              [-87.625119068324608, 37.793245601432297],
              [-87.625139011057925, 37.79317996931136],
              [-87.625161869706503, 37.793114933575325],
              [-87.62518761584586, 37.793050575097105],
              [-87.625216217460974, 37.792986973907638],
              [-87.625247638986011, 37.792924209096363],
              [-87.625281841348681, 37.792862358712888],
              [-87.625318782018667, 37.792801499669892],
              [-87.625358415060717, 37.792741707647458],
              [-87.625400691191501, 37.79268305699901],
              [-87.626864298317599, 37.791912518060791],
              [-87.626837629133462, 37.791861831470676],
              [-87.626916201178091, 37.791841771494632],
              [-87.62683140830012, 37.791632617986032],
              [-87.625760271528378, 37.789286894024421],
              [-87.625755275997079, 37.788500650343202],
              [-87.626663851838373, 37.78860492030519],
              [-87.628566916598103, 37.788555730083687],
              [-87.631335407522769, 37.788544046247637],
              [-87.632066451111086, 37.788505717033573],
              [-87.634233155237041, 37.788844331890211],
              [-87.635806602067888, 37.789369639104827],
              [-87.636009147909959, 37.789437363822188],
              [-87.636008648446648, 37.789438306582397],
              [-87.637292320326409, 37.789867724096425],
              [-87.638271204610049, 37.7901505166124],
              [-87.639750246589372, 37.790707801824652],
              [-87.642085346203515, 37.79229221666769],
              [-87.642418578054802, 37.792612817314584],
              [-87.641889151450528, 37.79324549240733],
              [-87.637722536990694, 37.790905805490382],
              [-87.635915959377314, 37.790346083261326],
              [-87.63559221373545, 37.790227051921036],
              [-87.637628379175879, 37.797930605818927],
              [-87.638242764846453, 37.797461106913126],
              [-87.638787702660736, 37.797047290313564],
              [-87.638784881052445, 37.797032521449758],
              [-87.639090522946404, 37.796800078622454],
              [-87.639112068140165, 37.796784127117057],
              [-87.639057948237564, 37.796500450683055],
              [-87.639074162828436, 37.796294888685892],
              [-87.639190588980838, 37.796208732748624],
              [-87.639513637530044, 37.7964868174573],
              [-87.640474750442422, 37.795775224315882],
              [-87.640916537407577, 37.795463820746484],
              [-87.641701575134377, 37.794834631596402],
              [-87.642089079601831, 37.794646487054301],
              [-87.642785301794802, 37.794113045390482],
              [-87.642302794197818, 37.793436996789161],
              [-87.642043629340051, 37.793320305908814],
              [-87.643945509221908, 37.790668446510523],
              [-87.644115350997737, 37.790676675647568],
              [-87.644142009402117, 37.790700102274783],
              [-87.64666666701595, 37.792914791545471],
              [-87.646336307078641, 37.793262840997059],
              [-87.646557486674638, 37.793382202506393],
              [-87.645707084832821, 37.794283022343194],
              [-87.647249480497564, 37.795124994874286],
              [-87.647429453473165, 37.795215923006246],
              [-87.64766677848975, 37.795335936554658],
              [-87.647773501040447, 37.795274095542794],
              [-87.651649206875305, 37.793032127633055],
              [-87.651760633903137, 37.793092368334342],
              [-87.652970837965697, 37.793746255160983],
              [-87.653047888264254, 37.793664449169633],
              [-87.65399519047746, 37.792661060696474],
              [-87.654136916781496, 37.792742306285241],
              [-87.65931113286797, 37.795707161130643],
              [-87.641374651253017, 37.802497655493873],
              [-87.649985316763335, 37.802720888004252],
              [-87.649801888867174, 37.808296245812073],
              [-87.649801161231778, 37.808296091091208],
              [-87.63463027527132, 37.805053022940626],
              [-87.633458891005446, 37.805494578075141],
              [-87.633197169542385, 37.80562169730883],
              [-87.633114841641529, 37.805857186312323],
              [-87.633255613934764, 37.806012874515886],
              [-87.633704732050958, 37.806246729141222],
              [-87.63377445748668, 37.806163948312495],
              [-87.634045758583937, 37.805841603704771],
              [-87.634192041143123, 37.805927945717414],
              [-87.634643392471105, 37.806194609466729],
              [-87.634709762699245, 37.806099136836345],
              [-87.634877181718736, 37.805858532002219],
              [-87.635044919640166, 37.80593279402877],
              [-87.635516134515711, 37.806141471974961],
              [-87.635609734476745, 37.806144107274058],
              [-87.636490500273482, 37.806263203816734],
              [-87.635943679590355, 37.807288926115888],
              [-87.635908908500639, 37.807354121935397],
              [-87.63514146697365, 37.807100994278692],
              [-87.634953976895758, 37.807039119822157],
              [-87.634615368627507, 37.807683443018973],
              [-87.633455291456116, 37.807261616091751],
              [-87.633881633686599, 37.807145614204714],
              [-87.634341999608466, 37.806801674987305],
              [-87.633239203511152, 37.806254185046647],
              [-87.632922416219472, 37.806049085269777],
              [-87.63270523412649, 37.805858695245149],
              [-87.632640878819529, 37.805802300457252],
              [-87.632488330511237, 37.805860388003694],
              [-87.632147144078118, 37.805990123458834],
              [-87.630804741243409, 37.806506056516895],
              [-87.630378130416659, 37.806678369820666],
              [-87.630095564445739, 37.806798938218456],
              [-87.629664211412617, 37.806994699269083],
              [-87.629216125460687, 37.80720717415759],
              [-87.628956244645622, 37.807335649591273],
              [-87.628588932509103, 37.80752557377],
              [-87.628165498125185, 37.807759004862142],
              [-87.627924829579101, 37.807894624922426],
              [-87.627720134068568, 37.808014618581282],
              [-87.627503582592922, 37.808145140891114],
              [-87.624346016047355, 37.81012932000872],
              [-87.623683215674518, 37.810549209377669],
              [-87.624558697580753, 37.811143023754305],
              [-87.624729346942019, 37.811104762331574],
              [-87.625040627561006, 37.811035113603118],
              [-87.625084887555047, 37.811071296345013],
              [-87.625341229906212, 37.811280939156219],
              [-87.626205580787754, 37.811300819267345],
              [-87.626362099649597, 37.811295821561778],
              [-87.627345476407967, 37.811264114298666],
              [-87.627346719676325, 37.811267701122681],
              [-87.627354032861064, 37.811288828889694],
              [-87.627681867634109, 37.811113319203244],
              [-87.628184247761794, 37.810684597207619],
              [-87.628333755272848, 37.81052723542809],
              [-87.628454030706251, 37.81024138328678],
              [-87.628380349988319, 37.810063840625652],
              [-87.628055574877138, 37.809486864837631],
              [-87.628155997542748, 37.809344846750626],
              [-87.628427577117748, 37.80919759420614],
              [-87.629593880512388, 37.808771384865956],
              [-87.630101750244776, 37.808888989592241],
              [-87.630361040866703, 37.809117815255348],
              [-87.631600817468424, 37.81006899951916],
              [-87.631963709893739, 37.810286300812571],
              [-87.632203427123926, 37.810451163298801],
              [-87.632460082088812, 37.810820633459073],
              [-87.632079599751904, 37.811092847150434],
              [-87.631780246963274, 37.81143802609553],
              [-87.631753331640709, 37.811664085979736],
              [-87.631857259532566, 37.811769355855233],
              [-87.632281909337053, 37.811931341480594],
              [-87.632777775780625, 37.812106265855732],
              [-87.633177909662678, 37.812298951233196],
              [-87.633459053600518, 37.812359340869996],
              [-87.633758894174377, 37.812360577149214],
              [-87.633944225600644, 37.812311558167437],
              [-87.634042100644109, 37.812248458183191],
              [-87.634259856760551, 37.812019640802639],
              [-87.634649376149213, 37.811468573637313],
              [-87.635276304097786, 37.810991269603306],
              [-87.635656313022537, 37.810705995539188],
              [-87.635924523016939, 37.810211642177784],
              [-87.636063451068864, 37.809478153059096],
              [-87.635985625524242, 37.809063792715506],
              [-87.636266498170855, 37.808907603492365],
              [-87.636543240363807, 37.808848810038967],
              [-87.63685856519821, 37.808906070491233],
              [-87.637295149121229, 37.809260242577324],
              [-87.637536422233495, 37.809492995374093],
              [-87.637599320473072, 37.809543984980962],
              [-87.637619495736047, 37.809447980134415],
              [-87.637802109758582, 37.808578970624431],
              [-87.638910888635664, 37.809293886814423],
              [-87.638412371263684, 37.810380830504485],
              [-87.639802081177891, 37.811504719262516],
              [-87.639915372209941, 37.811596339056813],
              [-87.641023134194128, 37.811129935443027],
              [-87.641434952463086, 37.811235295502321],
              [-87.641846768935423, 37.811340653282237],
              [-87.641534280082368, 37.812033444326424],
              [-87.643141750604599, 37.81266351885818],
              [-87.643107832914438, 37.813019507452346],
              [-87.643084585413192, 37.813263523809191],
              [-87.641638921236563, 37.813384229777846],
              [-87.640521550872094, 37.815387766742148],
              [-87.64079956328284, 37.816883933633115],
              [-87.637971590411638, 37.816818810096258],
              [-87.636610878114809, 37.81645490309478],
              [-87.634439640191616, 37.816573474188836],
              [-87.634287083798498, 37.816594584825253],
              [-87.628309523218064, 37.817344782724625],
              [-87.627364188315354, 37.817544117237581],
              [-87.636541536259713, 37.827145497655806],
              [-87.636522680621908, 37.827148479173921],
              [-87.636000846578412, 37.827230995228639],
              [-87.635708631803013, 37.827258506472553],
              [-87.635273364810189, 37.82737352029099],
              [-87.634407734727674, 37.827490099184423],
              [-87.634213282706341, 37.827516286323032],
              [-87.633605746689796, 37.827647375847299],
              [-87.632792124570656, 37.827784342269126],
              [-87.631067624228152, 37.828047397122312],
              [-87.630735128995425, 37.828134902351877],
              [-87.630196756069225, 37.828250171656627],
              [-87.629933141855844, 37.828277678263433],
              [-87.62918256440166, 37.828397954536271],
              [-87.628735573496058, 37.828447424743153],
              [-87.62728024344699, 37.828677693283382],
              [-87.625670179488537, 37.829023256873782],
              [-87.62502266215364, 37.829232703959846],
              [-87.625017093497192, 37.829235758474901],
              [-87.624638390722865, 37.829377494219941],
              [-87.624501247623385, 37.829428821307708],
              [-87.624473645089651, 37.829433553132695],
              [-87.623475650944968, 37.829604645048555],
              [-87.622982846858207, 37.82973132472808],
              [-87.621899773272972, 37.829984662149116],
              [-87.621447231677223, 37.830045206892528],
              [-87.620994427773439, 37.830150200095538],
              [-87.620581918700026, 37.830271031706275],
              [-87.619843014852975, 37.83056271796363],
              [-87.619521872528779, 37.830727693388454],
              [-87.619155221552305, 37.830892703919936],
              [-87.618817165747956, 37.830986031565878],
              [-87.617602669534975, 37.831102421698553],
              [-87.617264590374418, 37.831190772586851],
              [-87.616261774971619, 37.831580761412667],
              [-87.615350647914909, 37.831889105143397],
              [-87.615098679460885, 37.832020777913023],
              [-87.614949749566549, 37.832132833500474],
              [-87.614674490492149, 37.832339936803606],
              [-87.614457018243314, 37.83245521089124],
              [-87.613883929024652, 37.83268077716783],
              [-87.613259464256572, 37.833098559494388],
              [-87.612451397319177, 37.833615497879258],
              [-87.612245282470482, 37.833780499114269],
              [-87.611752473892153, 37.834253023602955],
              [-87.611357176539585, 37.834638271136491],
              [-87.611001899132916, 37.834940229607795],
              [-87.610589403534235, 37.835363544344361],
              [-87.6105191247363, 37.835481908403786],
              [-87.610331616692093, 37.835797706488528],
              [-87.610148275034192, 37.836067166170629],
              [-87.609948867007404, 37.83626564133256],
              [-87.609844363295466, 37.836369654434591],
              [-87.609357416224341, 37.836732171324904],
              [-87.608635469874912, 37.837155781552326],
              [-87.608039613753704, 37.837512705550644],
              [-87.607952657732511, 37.837582640742859],
              [-87.607260401601508, 37.838139384286308],
              [-87.60663013192007, 37.838639657441711],
              [-87.606454899354233, 37.838818389908724],
              [-87.606268998396089, 37.839008003231662],
              [-87.605868128793787, 37.839442462459907],
              [-87.605491182225848, 37.839918164375156],
              [-87.605088716317326, 37.840426063788371],
              [-87.604578975394176, 37.840947991927422],
              [-87.604452839351865, 37.841124107451989],
              [-87.604057586016765, 37.841558277546518],
              [-87.601926129087616, 37.844191030287504],
              [-87.601845876295059, 37.844333842517926],
              [-87.601770222876794, 37.844353249081131],
              [-87.601450578044194, 37.844435242942374],
              [-87.601353056936958, 37.844563574839292],
              [-87.600923370278679, 37.845097440142204],
              [-87.600847253329704, 37.845346516089919],
              [-87.600837206571569, 37.845379392653278],
              [-87.600785843598558, 37.845487714391894],
              [-87.600659733607401, 37.84560325522893],
              [-87.600390571398819, 37.845801035797358],
              [-87.599118565041351, 37.84668048510337],
              [-87.598886675730526, 37.846820379888314],
              [-87.5985627504256, 37.847015797873361],
              [-87.598127141174658, 37.847379107278634],
              [-87.597846336800004, 37.847659113830815],
              [-87.597537127696057, 37.84805438818298],
              [-87.597420431150752, 37.848226768353001],
              [-87.597164616110661, 37.848604645913532],
              [-87.597114586237538, 37.848706598716049],
              [-87.597090455692381, 37.848755772278004],
              [-87.59693547833956, 37.849071591558342],
              [-87.596740772095004, 37.849521870616464],
              [-87.596373813894687, 37.850434081760987],
              [-87.596070228244415, 37.851033274596539],
              [-87.595846853165867, 37.851406869831671],
              [-87.595577402598082, 37.851780500057927],
              [-87.595382660420896, 37.852077143021631],
              [-87.595136290267718, 37.852670767251958],
              [-87.594746870592033, 37.853396314254255],
              [-87.594259602822362, 37.854088260813832],
              [-87.594001837539793, 37.854385202321879],
              [-87.593371530129119, 37.855050185584517],
              [-87.592481179308308, 37.855986615865405],
              [-87.592109601072508, 37.856377416206321],
              [-87.59028201186463, 37.858588045297317],
              [-87.590276795347762, 37.858594354030892],
              [-87.591203227001969, 37.85966601668899],
              [-87.591463260530631, 37.860376307442095],
              [-87.591437988226758, 37.860761295823835],
              [-87.591120497554201, 37.862141553448886],
              [-87.590261328155208, 37.863460179342013],
              [-87.589207964551363, 37.863752130077458],
              [-87.588089933925176, 37.867486832844996],
              [-87.588041335966608, 37.868990720315978],
              [-87.586397948104377, 37.870549906259583],
              [-87.586310232108445, 37.872500716470213],
              [-87.584487232393357, 37.872494549331066],
              [-87.583930402681347, 37.872492658840763],
              [-87.583813189604754, 37.874062931847796],
              [-87.583921228187364, 37.875005229345433],
              [-87.584011320227191, 37.875790989226175],
              [-87.583743301573975, 37.878087360217677],
              [-87.583996749553293, 37.878764831557518],
              [-87.584131034213542, 37.879123776286988],
              [-87.573163291805642, 37.876594578843218],
              [-87.572437329986869, 37.877920093414204],
              [-87.573357932473172, 37.877973165744365],
              [-87.575332761844336, 37.877186715820507],
              [-87.575361566323934, 37.877791116906351],
              [-87.57737880515964, 37.87792713295061],
              [-87.577361963544689, 37.87802151216534],
              [-87.577546608658082, 37.878269980531236],
              [-87.572505251605506, 37.879563541713601],
              [-87.572348244060137, 37.879603822439663],
              [-87.572186591326457, 37.879512302697968],
              [-87.572376488889304, 37.879132266418999],
              [-87.57189027664009, 37.878909954961415],
              [-87.57171409275837, 37.878829384928807],
              [-87.571239914340694, 37.8796992212352],
              [-87.571115994442195, 37.880297250160233],
              [-87.57079969313908, 37.882634788511972],
              [-87.570791899355683, 37.882642915224352],
              [-87.570766459965142, 37.882661704077826],
              [-87.570679671030604, 37.882714592902097],
              [-87.570337275465107, 37.882909175519217],
              [-87.569568008561447, 37.883332833108362],
              [-87.568834687743873, 37.883743995631527],
              [-87.567808849418654, 37.884241095689021],
              [-87.566151335548582, 37.884922402788561],
              [-87.565174522779984, 37.885339721083007],
              [-87.564662338439277, 37.885539397206109],
              [-87.562196790869436, 37.884067485260651],
              [-87.562062360682134, 37.883987266862299],
              [-87.559082048810083, 37.88682878531089]
            ]
          ]
        ]
      },
      "properties": {
        "OBJECTID": 1,
        "Id": 0,
        "Shape__Are": 2423814811080000,
        "Shape__Len": 201113917.20500001,
        "Shape_Length": 201252303.11143637,
        "Shape_Area": 2423814731223053.5
      }
    }
  ]
}
